*******************************************************************************
Ephemeris / WWW_USER Fri Mar  7 11:24:35 2025 Pasadena, USA      / Horizons    
*******************************************************************************
Target body name: (2018 UG3)                      {source: JPL#15}
Center body name: Earth (399)                     {source: DE441}
Center-site name: Mauna Kea
*******************************************************************************
Start time      : A.D. 2019-Jan-19 04:15:00.0000 UT      
Stop  time      : A.D. 2019-Jan-19 16:49:00.0000 UT      
Step-size       : 1 minutes
*******************************************************************************
Target pole/equ : undefined
Target radii    : undefined                                                    
Center geodetic : 204.5278, 19.8260847, 4.21024   {E-lon(deg),Lat(deg),Alt(km)}
Center cylindric: 204.5278, 6006.35451, 2151.0229 {E-lon(deg),Dxy(km),Dz(km)}
Center pole/equ : ITRF93                          {East-longitude positive}
Center radii    : 6378.137, 6378.137, 6356.752 km {Equator_a, b, pole_c}       
Target primary  : Sun
Vis. interferer : MOON (R_eq= 1737.400) km        {source: DE441}
Rel. light bend : Sun                             {source: DE441}
Rel. lght bnd GM: 1.3271E+11 km^3/s^2                                          
Small-body perts: Yes                             {source: SB441-N16}
Atmos refraction: NO (AIRLESS)
RA format       : HMS
Time format     : CAL 
Calendar mode   : Mixed Julian/Gregorian
RTS-only print  : NO       
EOP file        : eop.250306.p250602                                           
EOP coverage    : DATA-BASED 1962-JAN-20 TO 2025-MAR-06. PREDICTS-> 2025-JUN-01
Units conversion: 1 au= 149597870.700 km, c= 299792.458 km/s, 1 day= 86400.0 s 
Table cut-offs 1: Elevation (-90.0deg=NO ),Airmass (>38.000=NO), Daylight (YES)
Table cut-offs 2: Solar elongation (  0.0,180.0=NO ),Local Hour Angle( 0.0=NO )
Table cut-offs 3: RA/DEC angular rate (     0.0=NO )                           
*******************************************************************************
Initial IAU76/J2000 heliocentric ecliptic osculating elements (au, days, deg.):
  EPOCH=  2458429.5 ! 2018-Nov-07.00 (TDB)         Residual RMS= .46194        
   EC= .4227384440318329   QR= .9585039390071354   TP= 2458393.2526467689      
   OM= 47.27406359171053   W=  314.2704472892426   IN= 6.159551265235018       
  Equivalent ICRF heliocentric cartesian coordinates (au, au/d):
   X= 7.430529944075828E-01  Y= 6.714692173902916E-01  Z= 2.851295671149762E-01
  VX=-1.040372162305418E-02 VY= 1.447630012002514E-02 VZ= 8.505235531163944E-03
Asteroid physical parameters (km, seconds, rotational period in hours):        
   GM= n.a.                RAD= n.a.               ROTPER= n.a.                
   H= 24.5                 G= .150                 B-V= n.a.                   
                           ALBEDO= n.a.            STYP= n.a.                  
*******************************************************************************
 Date__(UT)__HR:MN     R.A._________(ICRF)_________DEC
******************************************************
$$SOE
 2019-Jan-19 04:15 Cm  04 27 20.749997 +33 42 34.56695
 2019-Jan-19 04:16 Cm  04 27 20.807228 +33 42 34.48982
 2019-Jan-19 04:17 Cm  04 27 20.864446 +33 42 34.41257
 2019-Jan-19 04:18 Cm  04 27 20.921652 +33 42 34.33522
 2019-Jan-19 04:19 Cm  04 27 20.978844 +33 42 34.25775
 2019-Jan-19 04:20 Cm  04 27 21.036025 +33 42 34.18017
 2019-Jan-19 04:21 Cm  04 27 21.093193 +33 42 34.10249
 2019-Jan-19 04:22 Cm  04 27 21.150348 +33 42 34.02469
 2019-Jan-19 04:23 Cm  04 27 21.207491 +33 42 33.94677
 2019-Jan-19 04:24 Cm  04 27 21.264622 +33 42 33.86875
 2019-Jan-19 04:25 Cm  04 27 21.321741 +33 42 33.79061
 2019-Jan-19 04:26 Cm  04 27 21.378847 +33 42 33.71237
 2019-Jan-19 04:27 Cm  04 27 21.435942 +33 42 33.63400
 2019-Jan-19 04:28 Cm  04 27 21.493024 +33 42 33.55553
 2019-Jan-19 04:29 Nm  04 27 21.550095 +33 42 33.47693
 2019-Jan-19 04:30 Nm  04 27 21.607153 +33 42 33.39823
 2019-Jan-19 04:31 Nm  04 27 21.664201 +33 42 33.31941
 2019-Jan-19 04:32 Nm  04 27 21.721236 +33 42 33.24047
 2019-Jan-19 04:33 Nm  04 27 21.778260 +33 42 33.16142
 2019-Jan-19 04:34 Nm  04 27 21.835272 +33 42 33.08225
 2019-Jan-19 04:35 Nm  04 27 21.892273 +33 42 33.00297
 2019-Jan-19 04:36 Nm  04 27 21.949262 +33 42 32.92357
 2019-Jan-19 04:37 Nm  04 27 22.006240 +33 42 32.84405
 2019-Jan-19 04:38 Nm  04 27 22.063207 +33 42 32.76442
 2019-Jan-19 04:39 Nm  04 27 22.120163 +33 42 32.68466
 2019-Jan-19 04:40 Nm  04 27 22.177107 +33 42 32.60479
 2019-Jan-19 04:41 Nm  04 27 22.234041 +33 42 32.52480
 2019-Jan-19 04:42 Nm  04 27 22.290963 +33 42 32.44469
 2019-Jan-19 04:43 Nm  04 27 22.347875 +33 42 32.36446
 2019-Jan-19 04:44 Nm  04 27 22.404776 +33 42 32.28412
 2019-Jan-19 04:45 Nm  04 27 22.461666 +33 42 32.20365
 2019-Jan-19 04:46 Nm  04 27 22.518546 +33 42 32.12306
 2019-Jan-19 04:47 Nm  04 27 22.575415 +33 42 32.04235
 2019-Jan-19 04:48 Nm  04 27 22.632274 +33 42 31.96152
 2019-Jan-19 04:49 Nm  04 27 22.689122 +33 42 31.88057
 2019-Jan-19 04:50 Nm  04 27 22.745959 +33 42 31.79950
 2019-Jan-19 04:51 Nm  04 27 22.802787 +33 42 31.71831
 2019-Jan-19 04:52 Nm  04 27 22.859604 +33 42 31.63699
 2019-Jan-19 04:53 Nm  04 27 22.916412 +33 42 31.55555
 2019-Jan-19 04:54 Nm  04 27 22.973209 +33 42 31.47399
 2019-Jan-19 04:55 Nm  04 27 23.029996 +33 42 31.39231
 2019-Jan-19 04:56 Am  04 27 23.086774 +33 42 31.31050
 2019-Jan-19 04:57 Am  04 27 23.143541 +33 42 31.22857
 2019-Jan-19 04:58 Am  04 27 23.200299 +33 42 31.14651
 2019-Jan-19 04:59 Am  04 27 23.257048 +33 42 31.06433
 2019-Jan-19 05:00 Am  04 27 23.313786 +33 42 30.98203
 2019-Jan-19 05:01 Am  04 27 23.370516 +33 42 30.89960
 2019-Jan-19 05:02 Am  04 27 23.427235 +33 42 30.81704
 2019-Jan-19 05:03 Am  04 27 23.483946 +33 42 30.73436
 2019-Jan-19 05:04 Am  04 27 23.540647 +33 42 30.65155
 2019-Jan-19 05:05 Am  04 27 23.597339 +33 42 30.56862
 2019-Jan-19 05:06 Am  04 27 23.654022 +33 42 30.48556
 2019-Jan-19 05:07 Am  04 27 23.710696 +33 42 30.40237
 2019-Jan-19 05:08 Am  04 27 23.767362 +33 42 30.31906
 2019-Jan-19 05:09 Am  04 27 23.824018 +33 42 30.23562
 2019-Jan-19 05:10 Am  04 27 23.880665 +33 42 30.15205
 2019-Jan-19 05:11 Am  04 27 23.937304 +33 42 30.06836
 2019-Jan-19 05:12 Am  04 27 23.993935 +33 42 29.98453
 2019-Jan-19 05:13 Am  04 27 24.050556 +33 42 29.90058
 2019-Jan-19 05:14 Am  04 27 24.107170 +33 42 29.81650
 2019-Jan-19 05:15 Am  04 27 24.163775 +33 42 29.73229
 2019-Jan-19 05:16 Am  04 27 24.220371 +33 42 29.64795
 2019-Jan-19 05:17 Am  04 27 24.276960 +33 42 29.56348
 2019-Jan-19 05:18 Am  04 27 24.333540 +33 42 29.47889
 2019-Jan-19 05:19 Am  04 27 24.390112 +33 42 29.39416
 2019-Jan-19 05:20 Am  04 27 24.446677 +33 42 29.30930
 2019-Jan-19 05:21 Am  04 27 24.503233 +33 42 29.22431
 2019-Jan-19 05:22 Am  04 27 24.559782 +33 42 29.13919
 2019-Jan-19 05:23  m  04 27 24.616323 +33 42 29.05394
 2019-Jan-19 05:24  m  04 27 24.672857 +33 42 28.96856
 2019-Jan-19 05:25  m  04 27 24.729383 +33 42 28.88305
 2019-Jan-19 05:26  m  04 27 24.785901 +33 42 28.79740
 2019-Jan-19 05:27  m  04 27 24.842412 +33 42 28.71163
 2019-Jan-19 05:28  m  04 27 24.898916 +33 42 28.62572
 2019-Jan-19 05:29  m  04 27 24.955412 +33 42 28.53968
 2019-Jan-19 05:30  m  04 27 25.011902 +33 42 28.45350
 2019-Jan-19 05:31  m  04 27 25.068384 +33 42 28.36720
 2019-Jan-19 05:32  m  04 27 25.124860 +33 42 28.28076
 2019-Jan-19 05:33  m  04 27 25.181329 +33 42 28.19418
 2019-Jan-19 05:34  m  04 27 25.237790 +33 42 28.10748
 2019-Jan-19 05:35  m  04 27 25.294246 +33 42 28.02064
 2019-Jan-19 05:36  m  04 27 25.350694 +33 42 27.93366
 2019-Jan-19 05:37  m  04 27 25.407136 +33 42 27.84656
 2019-Jan-19 05:38  m  04 27 25.463572 +33 42 27.75931
 2019-Jan-19 05:39  m  04 27 25.520001 +33 42 27.67194
 2019-Jan-19 05:40  m  04 27 25.576424 +33 42 27.58442
 2019-Jan-19 05:41  m  04 27 25.632841 +33 42 27.49678
 2019-Jan-19 05:42  m  04 27 25.689251 +33 42 27.40900
 2019-Jan-19 05:43  m  04 27 25.745656 +33 42 27.32108
 2019-Jan-19 05:44  m  04 27 25.802055 +33 42 27.23303
 2019-Jan-19 05:45  m  04 27 25.858448 +33 42 27.14484
 2019-Jan-19 05:46  m  04 27 25.914835 +33 42 27.05651
 2019-Jan-19 05:47  m  04 27 25.971216 +33 42 26.96805
 2019-Jan-19 05:48  m  04 27 26.027592 +33 42 26.87946
 2019-Jan-19 05:49  m  04 27 26.083962 +33 42 26.79072
 2019-Jan-19 05:50  m  04 27 26.140327 +33 42 26.70185
 2019-Jan-19 05:51  m  04 27 26.196687 +33 42 26.61285
 2019-Jan-19 05:52  m  04 27 26.253041 +33 42 26.52370
 2019-Jan-19 05:53  m  04 27 26.309390 +33 42 26.43442
 2019-Jan-19 05:54  m  04 27 26.365734 +33 42 26.34501
 2019-Jan-19 05:55  m  04 27 26.422074 +33 42 26.25545
 2019-Jan-19 05:56  m  04 27 26.478408 +33 42 26.16576
 2019-Jan-19 05:57  m  04 27 26.534737 +33 42 26.07593
 2019-Jan-19 05:58  m  04 27 26.591062 +33 42 25.98596
 2019-Jan-19 05:59  m  04 27 26.647382 +33 42 25.89585
 2019-Jan-19 06:00  m  04 27 26.703698 +33 42 25.80561
 2019-Jan-19 06:01  m  04 27 26.760009 +33 42 25.71522
 2019-Jan-19 06:02  m  04 27 26.816315 +33 42 25.62470
 2019-Jan-19 06:03  m  04 27 26.872618 +33 42 25.53404
 2019-Jan-19 06:04  m  04 27 26.928916 +33 42 25.44324
 2019-Jan-19 06:05  m  04 27 26.985210 +33 42 25.35230
 2019-Jan-19 06:06  m  04 27 27.041500 +33 42 25.26122
 2019-Jan-19 06:07  m  04 27 27.097786 +33 42 25.17001
 2019-Jan-19 06:08  m  04 27 27.154069 +33 42 25.07865
 2019-Jan-19 06:09  m  04 27 27.210347 +33 42 24.98715
 2019-Jan-19 06:10  m  04 27 27.266622 +33 42 24.89552
 2019-Jan-19 06:11  m  04 27 27.322893 +33 42 24.80374
 2019-Jan-19 06:12  m  04 27 27.379161 +33 42 24.71183
 2019-Jan-19 06:13  m  04 27 27.435425 +33 42 24.61977
 2019-Jan-19 06:14  m  04 27 27.491686 +33 42 24.52758
 2019-Jan-19 06:15  m  04 27 27.547944 +33 42 24.43525
 2019-Jan-19 06:16  m  04 27 27.604199 +33 42 24.34277
 2019-Jan-19 06:17  m  04 27 27.660451 +33 42 24.25015
